<?xml version="1.0" encoding="UTF-8"?>
<ndm xmlns:xsi="http://www.w3.org/2001/XMLSchema-instance" xsi:noNamespaceSchemaLocation="https://sanaregistry.org/r/ndmxml_unqualified/ndmxml-2.0.0-master-2.0.xsd">
<omm id="CCSDS_OMM_VERS" version="2.0">
<header><CREATION_DATE/><ORIGINATOR/></header><body><segment><metadata><OBJECT_NAME>KUIPER-00016</OBJECT_NAME><OBJECT_ID>2025-088J</OBJECT_ID><CENTER_NAME>EARTH</CENTER_NAME><REF_FRAME>TEME</REF_FRAME><TIME_SYSTEM>UTC</TIME_SYSTEM><MEAN_ELEMENT_THEORY>SGP4</MEAN_ELEMENT_THEORY></metadata><data><meanElements><EPOCH>2025-11-19T18:30:50.975712</EPOCH><MEAN_MOTION>14.79976436</MEAN_MOTION><ECCENTRICITY>.0013577</ECCENTRICITY><INCLINATION>51.8994</INCLINATION><RA_OF_ASC_NODE>237.6521</RA_OF_ASC_NODE><ARG_OF_PERICENTER>63.9281</ARG_OF_PERICENTER><MEAN_ANOMALY>296.3077</MEAN_ANOMALY></meanElements><tleParameters><EPHEMERIS_TYPE>0</EPHEMERIS_TYPE><CLASSIFICATION_TYPE>U</CLASSIFICATION_TYPE><NORAD_CAT_ID>63732</NORAD_CAT_ID><ELEMENT_SET_NO>999</ELEMENT_SET_NO><REV_AT_EPOCH>3105</REV_AT_EPOCH><BSTAR>.7686E-3</BSTAR><MEAN_MOTION_DOT>.5654E-4</MEAN_MOTION_DOT><MEAN_MOTION_DDOT>0</MEAN_MOTION_DDOT></tleParameters></data></segment></body></omm>
<omm id="CCSDS_OMM_VERS" version="2.0">
<header><CREATION_DATE/><ORIGINATOR/></header><body><segment><metadata><OBJECT_NAME>KUIPER-00018</OBJECT_NAME><OBJECT_ID>2025-088K</OBJECT_ID><CENTER_NAME>EARTH</CENTER_NAME><REF_FRAME>TEME</REF_FRAME><TIME_SYSTEM>UTC</TIME_SYSTEM><MEAN_ELEMENT_THEORY>SGP4</MEAN_ELEMENT_THEORY></metadata><data><meanElements><EPOCH>2025-11-19T17:11:39.131232</EPOCH><MEAN_MOTION>14.79977142</MEAN_MOTION><ECCENTRICITY>.0013697</ECCENTRICITY><INCLINATION>51.9017</INCLINATION><RA_OF_ASC_NODE>226.8476</RA_OF_ASC_NODE><ARG_OF_PERICENTER>84.4678</ARG_OF_PERICENTER><MEAN_ANOMALY>275.7846</MEAN_ANOMALY></meanElements><tleParameters><EPHEMERIS_TYPE>0</EPHEMERIS_TYPE><CLASSIFICATION_TYPE>U</CLASSIFICATION_TYPE><NORAD_CAT_ID>63733</NORAD_CAT_ID><ELEMENT_SET_NO>999</ELEMENT_SET_NO><REV_AT_EPOCH>3120</REV_AT_EPOCH><BSTAR>.69838E-3</BSTAR><MEAN_MOTION_DOT>.5117E-4</MEAN_MOTION_DOT><MEAN_MOTION_DDOT>0</MEAN_MOTION_DDOT></tleParameters></data></segment></body></omm>
<omm id="CCSDS_OMM_VERS" version="2.0">
<header><CREATION_DATE/><ORIGINATOR/></header><body><segment><metadata><OBJECT_NAME>KUIPER-00019</OBJECT_NAME><OBJECT_ID>2025-088L</OBJECT_ID><CENTER_NAME>EARTH</CENTER_NAME><REF_FRAME>TEME</REF_FRAME><TIME_SYSTEM>UTC</TIME_SYSTEM><MEAN_ELEMENT_THEORY>SGP4</MEAN_ELEMENT_THEORY></metadata><data><meanElements><EPOCH>2025-11-18T23:23:26.678976</EPOCH><MEAN_MOTION>14.79936099</MEAN_MOTION><ECCENTRICITY>.00097996</ECCENTRICITY><INCLINATION>51.9006</INCLINATION><RA_OF_ASC_NODE>228.6796</RA_OF_ASC_NODE><ARG_OF_PERICENTER>95.2683</ARG_OF_PERICENTER><MEAN_ANOMALY>264.9398</MEAN_ANOMALY></meanElements><tleParameters><EPHEMERIS_TYPE>0</EPHEMERIS_TYPE><CLASSIFICATION_TYPE>U</CLASSIFICATION_TYPE><NORAD_CAT_ID>63734</NORAD_CAT_ID><ELEMENT_SET_NO>999</ELEMENT_SET_NO><REV_AT_EPOCH>3111</REV_AT_EPOCH><BSTAR>.35842591E-2</BSTAR><MEAN_MOTION_DOT>.27234E-3</MEAN_MOTION_DOT><MEAN_MOTION_DDOT>0</MEAN_MOTION_DDOT></tleParameters></data></segment></body></omm>
<omm id="CCSDS_OMM_VERS" version="2.0">
<header><CREATION_DATE/><ORIGINATOR/></header><body><segment><metadata><OBJECT_NAME>KUIPER-00020</OBJECT_NAME><OBJECT_ID>2025-088M</OBJECT_ID><CENTER_NAME>EARTH</CENTER_NAME><REF_FRAME>TEME</REF_FRAME><TIME_SYSTEM>UTC</TIME_SYSTEM><MEAN_ELEMENT_THEORY>SGP4</MEAN_ELEMENT_THEORY></metadata><data><meanElements><EPOCH>2025-11-18T23:15:55.587168</EPOCH><MEAN_MOTION>14.79667838</MEAN_MOTION><ECCENTRICITY>.0008623</ECCENTRICITY><INCLINATION>51.8998</INCLINATION><RA_OF_ASC_NODE>232.6656</RA_OF_ASC_NODE><ARG_OF_PERICENTER>63.1988</ARG_OF_PERICENTER><MEAN_ANOMALY>296.9855</MEAN_ANOMALY></meanElements><tleParameters><EPHEMERIS_TYPE>0</EPHEMERIS_TYPE><CLASSIFICATION_TYPE>U</CLASSIFICATION_TYPE><NORAD_CAT_ID>63735</NORAD_CAT_ID><ELEMENT_SET_NO>999</ELEMENT_SET_NO><REV_AT_EPOCH>3126</REV_AT_EPOCH><BSTAR>-.14634059E-1</BSTAR><MEAN_MOTION_DOT>-.109383E-2</MEAN_MOTION_DOT><MEAN_MOTION_DDOT>0</MEAN_MOTION_DDOT></tleParameters></data></segment></body></omm>
<omm id="CCSDS_OMM_VERS" version="2.0">
<header><CREATION_DATE/><ORIGINATOR/></header><body><segment><metadata><OBJECT_NAME>KUIPER-00021</OBJECT_NAME><OBJECT_ID>2025-088N</OBJECT_ID><CENTER_NAME>EARTH</CENTER_NAME><REF_FRAME>TEME</REF_FRAME><TIME_SYSTEM>UTC</TIME_SYSTEM><MEAN_ELEMENT_THEORY>SGP4</MEAN_ELEMENT_THEORY></metadata><data><meanElements><EPOCH>2025-11-19T18:42:32.256000</EPOCH><MEAN_MOTION>14.79959614</MEAN_MOTION><ECCENTRICITY>.0007619</ECCENTRICITY><INCLINATION>51.9002</INCLINATION><RA_OF_ASC_NODE>230.0987</RA_OF_ASC_NODE><ARG_OF_PERICENTER>76.8255</ARG_OF_PERICENTER><MEAN_ANOMALY>283.3557</MEAN_ANOMALY></meanElements><tleParameters><EPHEMERIS_TYPE>0</EPHEMERIS_TYPE><CLASSIFICATION_TYPE>U</CLASSIFICATION_TYPE><NORAD_CAT_ID>63736</NORAD_CAT_ID><ELEMENT_SET_NO>999</ELEMENT_SET_NO><REV_AT_EPOCH>3120</REV_AT_EPOCH><BSTAR>-.15455E-3</BSTAR><MEAN_MOTION_DOT>-.1403E-4</MEAN_MOTION_DOT><MEAN_MOTION_DDOT>0</MEAN_MOTION_DDOT></tleParameters></data></segment></body></omm>
<omm id="CCSDS_OMM_VERS" version="2.0">
<header><CREATION_DATE/><ORIGINATOR/></header><body><segment><metadata><OBJECT_NAME>KUIPER-00023</OBJECT_NAME><OBJECT_ID>2025-088P</OBJECT_ID><CENTER_NAME>EARTH</CENTER_NAME><REF_FRAME>TEME</REF_FRAME><TIME_SYSTEM>UTC</TIME_SYSTEM><MEAN_ELEMENT_THEORY>SGP4</MEAN_ELEMENT_THEORY></metadata><data><meanElements><EPOCH>2025-11-19T18:40:56.796096</EPOCH><MEAN_MOTION>14.79940906</MEAN_MOTION><ECCENTRICITY>.0012127</ECCENTRICITY><INCLINATION>51.8997</INCLINATION><RA_OF_ASC_NODE>231.5712</RA_OF_ASC_NODE><ARG_OF_PERICENTER>96.1873</ARG_OF_PERICENTER><MEAN_ANOMALY>264.0472</MEAN_ANOMALY></meanElements><tleParameters><EPHEMERIS_TYPE>0</EPHEMERIS_TYPE><CLASSIFICATION_TYPE>U</CLASSIFICATION_TYPE><NORAD_CAT_ID>63737</NORAD_CAT_ID><ELEMENT_SET_NO>999</ELEMENT_SET_NO><REV_AT_EPOCH>3148</REV_AT_EPOCH><BSTAR>-.38411E-3</BSTAR><MEAN_MOTION_DOT>-.3156E-4</MEAN_MOTION_DOT><MEAN_MOTION_DDOT>0</MEAN_MOTION_DDOT></tleParameters></data></segment></body></omm>
<omm id="CCSDS_OMM_VERS" version="2.0">
<header><CREATION_DATE/><ORIGINATOR/></header><body><segment><metadata><OBJECT_NAME>KUIPER-00024</OBJECT_NAME><OBJECT_ID>2025-088Q</OBJECT_ID><CENTER_NAME>EARTH</CENTER_NAME><REF_FRAME>TEME</REF_FRAME><TIME_SYSTEM>UTC</TIME_SYSTEM><MEAN_ELEMENT_THEORY>SGP4</MEAN_ELEMENT_THEORY></metadata><data><meanElements><EPOCH>2025-11-19T17:10:28.914816</EPOCH><MEAN_MOTION>14.79614984</MEAN_MOTION><ECCENTRICITY>.0005224</ECCENTRICITY><INCLINATION>51.9025</INCLINATION><RA_OF_ASC_NODE>219.2975</RA_OF_ASC_NODE><ARG_OF_PERICENTER>90.1708</ARG_OF_PERICENTER><MEAN_ANOMALY>269.9852</MEAN_ANOMALY></meanElements><tleParameters><EPHEMERIS_TYPE>0</EPHEMERIS_TYPE><CLASSIFICATION_TYPE>U</CLASSIFICATION_TYPE><NORAD_CAT_ID>63738</NORAD_CAT_ID><ELEMENT_SET_NO>999</ELEMENT_SET_NO><REV_AT_EPOCH>3177</REV_AT_EPOCH><BSTAR>.35522E-3</BSTAR><MEAN_MOTION_DOT>.2467E-4</MEAN_MOTION_DOT><MEAN_MOTION_DDOT>0</MEAN_MOTION_DDOT></tleParameters></data></segment></body></omm>
<omm id="CCSDS_OMM_VERS" version="2.0">
<header><CREATION_DATE/><ORIGINATOR/></header><body><segment><metadata><OBJECT_NAME>KUIPER-00025</OBJECT_NAME><OBJECT_ID>2025-088R</OBJECT_ID><CENTER_NAME>EARTH</CENTER_NAME><REF_FRAME>TEME</REF_FRAME><TIME_SYSTEM>UTC</TIME_SYSTEM><MEAN_ELEMENT_THEORY>SGP4</MEAN_ELEMENT_THEORY></metadata><data><meanElements><EPOCH>2025-11-19T18:36:21.180096</EPOCH><MEAN_MOTION>14.80478734</MEAN_MOTION><ECCENTRICITY>.0009793</ECCENTRICITY><INCLINATION>51.9007</INCLINATION><RA_OF_ASC_NODE>227.5718</RA_OF_ASC_NODE><ARG_OF_PERICENTER>72.7251</ARG_OF_PERICENTER><MEAN_ANOMALY>287.4782</MEAN_ANOMALY></meanElements><tleParameters><EPHEMERIS_TYPE>0</EPHEMERIS_TYPE><CLASSIFICATION_TYPE>U</CLASSIFICATION_TYPE><NORAD_CAT_ID>63739</NORAD_CAT_ID><ELEMENT_SET_NO>999</ELEMENT_SET_NO><REV_AT_EPOCH>3152</REV_AT_EPOCH><BSTAR>.4146E-3</BSTAR><MEAN_MOTION_DOT>.2981E-4</MEAN_MOTION_DOT><MEAN_MOTION_DDOT>0</MEAN_MOTION_DDOT></tleParameters></data></segment></body></omm>

</ndm>
