KUIPER-00016            
1 63732U 25088J   25323.77142334  .00005654  00000+0  76860-3 0  9999
2 63732  51.8994 237.6521 0013577  63.9281 296.3077 14.79976436 31056
KUIPER-00018            
1 63733U 25088K   25323.71642513  .00005117  00000+0  69838-3 0  9999
2 63733  51.9017 226.8476 0013697  84.4678 275.7846 14.79977142 31201
KUIPER-00019            
1 63734U 25088L   25322.97461434  .00027234  00000+0  35843-2 0  9990
2 63734  51.9006 228.6796 0009799  95.2683 264.9398 14.79936099 31117
KUIPER-00020            
1 63735U 25088M   25322.96939337 -.00109383  00000+0 -14634-1 0  9994
2 63735  51.8998 232.6656 0008623  63.1988 296.9855 14.79667838 31265
KUIPER-00021            
1 63736U 25088N   25323.77954000 -.00001403  00000+0 -15455-3 0  9997
2 63736  51.9002 230.0987 0007619  76.8255 283.3557 14.79959614 31203
KUIPER-00023            
1 63737U 25088P   25323.77843514 -.00003156  00000+0 -38411-3 0  9999
2 63737  51.8997 231.5712 0012127  96.1873 264.0472 14.79940906 31485
KUIPER-00024            
1 63738U 25088Q   25323.71561245  .00002467  00000+0  35522-3 0  9994
2 63738  51.9025 219.2975 0005223  90.1708 269.9852 14.79614984 31775
KUIPER-00025            
1 63739U 25088R   25323.77524515  .00002981  00000+0  41460-3 0  9999
2 63739  51.9007 227.5718 0009792  72.7251 287.4782 14.80478734 31520
